NORAD_CAT_ID,OBJECT_NAME,OBJECT_TYPE,EPOCH,MEAN_MOTION,ECCENTRICITY,INCLINATION,RA_OF_ASC_NODE,ARG_OF_PERICENTER,MEAN_ANOMALY,BSTAR,MEAN_MOTION_DOT,MEAN_MOTION_DDOT,TLE_LINE0,TLE_LINE1,TLE_LINE2,SEMIMAJOR_AXIS,PERIOD,APOGEE,PERIGEE,DECAYED
54159.0,STARLINK-5294,PAYLOAD,2022-11-03 14:00:01,15.87630379,0.0019685,53.2175,111.8461,197.5825,356.4288,-0.0046935,-0.01297218,0.0004711,0 STARLINK-5294,1 54159U 22017C   22307.58334491 -.01297218  47110-3 -46935-2 0  9994,2 54159  53.2175 111.8461 0019685 197.5825 356.4288 15.87630379  1058,6687.065,90.701,322.094,295.767,0.0
54159.0,STARLINK-5294,PAYLOAD,2022-11-03 22:00:00,15.86765835,0.0016340999999999,53.2176,110.164,206.1545,93.6182,-0.0049816,-0.01162423,0.0,0 STARLINK-5294,1 54159U 22141C   22307.91667824 -.01162423  00000-0 -49816-2 0  9992,2 54159  53.2176 110.1640 0016341 206.1545  93.6182 15.86765835  1308,6689.494000000002,90.751,322.29,300.428,0.0
54159.0,STARLINK-5294,PAYLOAD,2022-11-04 06:00:00,15.85929045,0.0013488,53.2176,108.4796,214.6694,189.8102,-0.0054371,-0.01204886,0.0,0 STARLINK-5294,1 54159U 22141C   22308.25001157 -.01204886  00000-0 -54371-2 0  9993,2 54159  53.2176 108.4796 0013488 214.6694 189.8102 15.85929045  1166,6691.847,90.799,322.738,304.686,0.0
54159.0,STARLINK-5294,PAYLOAD,2022-11-04 14:00:01,15.85036351,0.0010854,53.2176,106.8005,226.6881,281.475,-0.0054752,-0.0116247,0.0,0 STARLINK-5294,1 54159U 22141C   22308.58334491 -.01162470  00000-0 -54752-2 0  9994,2 54159  53.2176 106.8005 0010854 226.6881 281.4750 15.85036351  1309,6694.359,90.85,323.49,308.958,0.0
54159.0,STARLINK-5294,PAYLOAD,2022-11-04 22:00:01,15.84168585,0.0008826,53.2173,105.1243,250.8923,359.968,-0.0057145,-0.01182018,0.0,0 STARLINK-5294,1 54159U 22141C   22308.91668981 -.01182018  00000-0 -57145-2 0  9994,2 54159  53.2173 105.1243 0008826 250.8923 359.9680 15.84168585  1266,6696.804,90.899,324.579,312.758,0.0
54159.0,STARLINK-5294,PAYLOAD,2022-11-05 12:00:00,15.82658013,0.0005777,53.2175,102.1919,267.5241,70.3641,-0.0062159,-0.011913,0.0,0 STARLINK-5294,1 54159U 22141C   22309.50001157 -.01191300  00000-0 -62159-2 0  9991,2 54159  53.2175 102.1919 0005777 267.5241  70.3641 15.82658013  1354,6701.064,90.986,326.801,319.058,0.0
54159.0,STARLINK-5294,PAYLOAD,2022-11-05 14:00:01,15.82462183,0.0004935,53.2175,101.7744,270.4942,182.4921,-0.0065,-0.01228682,0.0,0 STARLINK-5294,1 54159U 22141C   22309.58335648 -.01228682  00000-0 -65000-2 0  9996,2 54159  53.2175 101.7744 0004935 270.4942 182.4921 15.82462183  1303,6701.6169999999975,90.997,326.789,320.175,0.0
54159.0,STARLINK-5294,PAYLOAD,2022-11-05 20:00:01,15.81805015,0.0002496,53.2177,100.522,274.2255,163.4218,-0.0066467,-0.01217342,0.0,0 STARLINK-5294,1 54159U 22141C   22309.83334491 -.01217342  00000-0 -66467-2 0  9998,2 54159  53.2177 100.5220 0002496 274.2255 163.4218 15.81805015  1414,6703.473000000001,91.035,327.011,323.665,0.0
54159.0,STARLINK-5294,PAYLOAD,2022-11-05 22:00:01,15.81610147,0.0002735,53.2173,100.1048,293.5664,258.9116,-0.0068568,-0.01241434,0.0,0 STARLINK-5294,1 54159U 22141C   22309.91668981 -.01241434  00000-0 -68568-2 0  9994,2 54159  53.2173 100.1048 0002735 293.5664 258.9116 15.81610147  1303,6704.024,91.046,327.722,324.055,0.0
54159.0,STARLINK-5294,PAYLOAD,2022-11-06 14:00:01,15.79864582,0.0001281,53.2174,96.7675,41.9944,346.3022,-0.0073638,-0.01229623,0.0,0 STARLINK-5294,1 54159U 22141C   22310.58334491 -.01229623  00000-0 -73638-2 0  9995,2 54159  53.2174  96.7675 0001281  41.9944 346.3022 15.79864582  1300,6708.9609999999975,91.147,331.685,329.967,0.0
54159.0,STARLINK-5294,PAYLOAD,2022-11-06 22:00:00,15.78970065,0.0001356,53.2171,95.1044,46.7922,77.8888,-0.007405,-0.01191517,0.0,0 STARLINK-5294,1 54159U 22141C   22310.91667824 -.01191517  00000-0 -74050-2 0  9990,2 54159  53.2171  95.1044 0001356  46.7922  77.8888 15.78970065  1581,6711.495,91.199,334.27,332.449,0.0
54159.0,STARLINK-5294,PAYLOAD,2022-11-07 14:00:01,15.77244945,0.0001264,53.2177,91.7798,48.7194,265.5771,-0.0081204,-0.0120634,0.0,0 STARLINK-5294,1 54159U 22141C   22311.58334491 -.01206340  00000-0 -81204-2 0  9995,2 54159  53.2177  91.7798 0001264  48.7194 265.5771 15.77244945  1684,6716.388000000001,91.298,339.101,337.404,0.0
54159.0,STARLINK-5294,PAYLOAD,2022-11-07 22:00:00,15.76369601,0.0001372,53.2171,90.1218,37.0251,10.5196,-0.0083582,-0.01195379,0.0,0 STARLINK-5294,1 54159U 22141C   22311.91667824 -.01195379  00000-0 -83582-2 0  9991,2 54159  53.2171  90.1218 0001372  37.0251  10.5196 15.76369601  1307,6718.874,91.349,341.66,339.81699999999995,0.0
54159.0,STARLINK-5294,PAYLOAD,2022-11-08 06:00:00,15.75498465,0.000158,53.2172,88.4638,37.1825,102.5666,-0.0086502,-0.01190877,0.0,0 STARLINK-5294,1 54159U 22141C   22312.25001157 -.01190877  00000-0 -86502-2 0  9993,2 54159  53.2172  88.4638 0001580  37.1825 102.5666 15.75498465  1790,6721.35,91.4,344.277,342.153,0.0
54159.0,STARLINK-5294,PAYLOAD,2022-11-08 14:00:01,15.74634925,0.0001561999999999,53.2175,86.8114,47.7816,183.1224,-0.0090212,-0.01195051,0.0,0 STARLINK-5294,1 54159U 22141C   22312.58334491 -.01195051  00000-0 -90212-2 0  9991,2 54159  53.2175  86.8114 0001562  47.7816 183.1224 15.74634925  1305,6723.807,91.45,346.723,344.622,0.0
54159.0,STARLINK-5294,PAYLOAD,2022-11-08 22:00:00,15.73698188,0.0001761999999999,53.2171,85.1606,35.1872,285.8134,-0.0047623999999999,-0.00634439,0.0,0 STARLINK-5294,1 54159U 22141C   22312.91667824 -.00634439  00000-0 -47624-2 0  9993,2 54159  53.2171  85.1606 0001762  35.1872 285.8134 15.73698188  1898,6726.475,91.504,349.525,347.155,0.0
54159.0,STARLINK-5294,PAYLOAD,2022-11-09 04:00:00,15.73208418,0.0001709,53.2175,83.9204,40.2099,257.8005,-6.205800000000001e-05,-9.324e-05,0.0,0 STARLINK-5294,1 54159U 22141C   22313.16667824 -.00009324  00000-0 -62058-4 0  9990,2 54159  53.2175  83.9204 0001709  40.2099 257.8005 15.73208418  1935,6727.871,91.533,350.886,348.586,0.0
54159.0,STARLINK-5294,PAYLOAD,2022-11-09 12:00:00,15.73331322,0.0001706999999999,53.2194,82.2766,34.7803,352.2551,-0.0012287,-0.00170576,0.0,0 STARLINK-5294,1 54159U 22141C   22313.50001157 -.00170576  00000-0 -12287-2 0  9994,2 54159  53.2194  82.2766 0001707  34.7803 352.2551 15.73331322  1993,6727.521,91.526,350.534,348.237,0.0
54159.0,STARLINK-5294,PAYLOAD,2022-11-09 14:00:01,15.73300378,0.0001816,53.2191,81.8648,32.7865,106.5158,-0.0011673,-0.00162034,0.0,0 STARLINK-5294,1 54159U 22141C   22313.58334491 -.00162034  00000-0 -11673-2 0  9990,2 54159  53.2191  81.8648 0001816  32.7865 106.5158 15.73300378  1306,6727.609,91.527,350.696,348.25199999999984,0.0
54159.0,STARLINK-5294,PAYLOAD,2022-11-09 22:00:01,15.73188294,0.0001891,53.2188,80.2157,28.6597,199.6822,-0.00058928,-0.00082481,0.0,0 STARLINK-5294,1 54159U 22141C   22313.91668981 -.00082481  00000-0 -58928-3 0  9993,2 54159  53.2188  80.2157 0001891  28.6597 199.6822 15.73188294  1301,6727.929,91.534,351.066,348.521,0.0
54159.0,STARLINK-5294,PAYLOAD,2022-11-10 06:00:00,15.73130274,0.0001709,53.2189,78.5647,31.8022,285.3638,0.000277,0.00038317,0.0,0 STARLINK-5294,1 54159U 22141C   22314.25001157  .00038317  00000-0  27700-3 0  9998,2 54159  53.2189  78.5647 0001709  31.8022 285.3638 15.73130274  2105,6728.094,91.537,351.1090000000001,348.809,0.0
54159.0,STARLINK-5294,PAYLOAD,2022-11-10 14:00:01,15.73099736,0.0001613,53.2179,76.9118,35.6172,10.4245,0.0010708,0.00151751,0.0,0 STARLINK-5294,1 54159U 22141C   22314.58334491  .00151751  00000-0  10708-2 0  9991,2 54159  53.2179  76.9118 0001613  35.6172  10.4245 15.73099736  1300,6728.181,91.539,351.131,348.961,0.0
54159.0,STARLINK-5294,PAYLOAD,2022-11-10 20:00:01,15.73220966,0.0002107,53.2191,75.681,24.3993,358.3199,0.00030165,0.00041966,0.0,0 STARLINK-5294,1 54159U 22141C   22314.83334491  .00041966  00000-0  30165-3 0  9995,2 54159  53.2191  75.6810 0002107  24.3993 358.3199 15.73220966  2207,6727.835,91.532,351.11800000000005,348.283,0.0
54159.0,STARLINK-5294,PAYLOAD,2022-11-10 22:00:00,15.73270389,0.0002075,53.2193,75.2681,27.0188,107.9287,-0.00043656,-0.00061632,0.0,0 STARLINK-5294,1 54159U 22141C   22314.91667824 -.00061632  00000-0 -43656-3 0  9996,2 54159  53.2193  75.2681 0002075  27.0188 107.9287 15.73270389  1301,6727.694,91.529,350.955,348.164,0.0
54159.0,STARLINK-5294,PAYLOAD,2022-11-11 04:00:00,15.73205259,0.0001909,53.2197,74.0295,29.9942,81.7104,0.00025455,0.00035263,0.0,0 STARLINK-5294,1 54159U 22141C   22315.16667824  .00035263  00000-0  25455-3 0  9990,2 54159  53.2197  74.0295 0001909  29.9942  81.7104 15.73205259  2253,6727.88,91.533,351.03,348.461,0.0
54159.0,STARLINK-5294,PAYLOAD,2022-11-11 14:00:01,15.73218468,0.0002102,53.2197,71.9692,25.2066,287.6866,-0.00050521,-0.00070991,0.0,0 STARLINK-5294,1 54159U 22141C   22315.58334491 -.00070991  00000-0 -50521-3 0  9998,2 54159  53.2197  71.9692 0002102  25.2066 287.6866 15.73218468  2317,6727.843000000003,91.532,351.122,348.293,0.0
54159.0,STARLINK-5294,PAYLOAD,2022-11-11 22:00:00,15.73210422,0.0002224,53.2193,70.3198,20.7703,21.0414,-7.305399999999999e-06,-1.647e-05,0.0,0 STARLINK-5294,1 54159U 22141C   22315.91667824 -.00001647  00000-0 -73054-5 0  9994,2 54159  53.2193  70.3198 0002224  20.7703  21.0414 15.73210422  2377,6727.865,91.533,351.227,348.2340000000001,0.0
54159.0,STARLINK-5294,PAYLOAD,2022-11-12 14:00:01,15.73241137,0.0002284,53.2195,67.0216,24.5532,195.1375,-0.00040725,-0.00057495,0.0,0 STARLINK-5294,1 54159U 22141C   22316.58334491 -.00057495  00000-0 -40725-3 0  9998,2 54159  53.2195  67.0216 0002284  24.5532 195.1375 15.73241137  1309,6727.778,91.531,351.18,348.106,0.0
54159.0,STARLINK-5294,PAYLOAD,2022-11-12 22:00:00,15.73227529,0.0002329,53.2196,65.3718,22.1446,286.4948,-0.00045962,-0.00064716,0.0,0 STARLINK-5294,1 54159U 22141C   22316.91667824 -.00064716  00000-0 -45962-3 0  9996,2 54159  53.2196  65.3718 0002329  22.1446 286.4948 15.73227529  1305,6727.816999999999,91.532,351.249,348.115,0.0
